{"_default": {"1": {"norad_id": "25544", "name": "ISS (ZARYA)", "tle1": "1 25544U 98067A   26199.08891132  .00003768  00000-0  76429-4 0  9995", "tle2": "2 25544  51.6318 147.1664 0006794 308.8910  51.1472 15.49037991576545", "object_type": "PAYLOAD", "criticality_score": 10.0, "last_updated": "2026-07-18T17:04:38.830881+00:00", "maneuver_count": 0, "owner": "N/A"}, "37": {"norad_id": "27939", "name": "MOZHAYETS 4", "tle1": "1 27939U 03042A   26199.32526797  .00000443  00000-0  76443-4 0  9996", "tle2": "2 27939  98.3473  24.5650 0011474 163.3826 321.2806 14.73517394220138", "object_type": "PAYLOAD", "criticality_score": 9.0, "last_updated": "2026-07-18T17:04:38.830881+00:00", "maneuver_count": 0, "owner": "N/A"}, "68": {"norad_id": "22825", "name": "EYESAT A", "tle1": "1 22825U 93061C   26199.18581315  .00000029  00000-0  27847-4 0  9990", "tle2": "2 22825  98.6865 266.5857 0008593  17.4944 342.6533 14.30949549711436", "object_type": "PAYLOAD", "criticality_score": 7.0, "last_updated": "2026-07-18T17:04:38.830881+00:00", "maneuver_count": 0, "owner": "N/A"}, "94": {"norad_id": "27848", "name": "XI-IV", "tle1": "1 27848U 03031J   26198.95002441  .00000107  00000-0  66203-4 0  9996", "tle2": "2 27848  98.6776 206.8106 0010632 112.1739 248.0569 14.23635431195756", "object_type": "PAYLOAD", "criticality_score": 9.0, "last_updated": "2026-07-18T17:04:38.830881+00:00", "maneuver_count": 0, "owner": "N/A"}, "95": {"norad_id": "27844", "name": "CUTE-1", "tle1": "1 27844U 03031E   26199.29733931  .00000128  00000-0  74435-4 0  9994", "tle2": "2 27844  98.6744 207.4657 0010868  94.6885 265.5536 14.24352673196105", "object_type": "PAYLOAD", "criticality_score": 9.0, "last_updated": "2026-07-18T17:04:38.830881+00:00", "maneuver_count": 0, "owner": "N/A"}, "96": {"norad_id": "26931", "name": "PCSAT", "tle1": "1 26931U 01043C   26199.17055623  .00000023  00000-0  39648-4 0  9994", "tle2": "2 26931  67.0497 164.1338 0005882 266.7892  93.2537 14.31965620294882", "object_type": "PAYLOAD", "criticality_score": 9.0, "last_updated": "2026-07-18T17:04:38.830881+00:00", "maneuver_count": 0, "owner": "N/A"}, "97": {"norad_id": "25397", "name": "TECHSAT 1B", "tle1": "1 25397U 98043D   26198.97124761  .00000003  00000-0  21480-4 0  9995", "tle2": "2 25397  99.0087 192.5089 0002267 110.8541 249.2880 14.24433657455716", "object_type": "PAYLOAD", "criticality_score": 9.0, "last_updated": "2026-07-18T17:04:38.830881+00:00", "maneuver_count": 0, "owner": "N/A"}, "98": {"norad_id": "25338", "name": "NOAA 15", "tle1": "1 25338U 98030A   26199.31443733  .00000034  00000-0  31508-4 0  9994", "tle2": "2 25338  98.5064 219.1055 0009035 254.4222 105.5962 14.27154920465734", "object_type": "PAYLOAD", "criticality_score": 9.0, "last_updated": "2026-07-18T17:04:38.830881+00:00", "maneuver_count": 0, "owner": "N/A"}, "99": {"norad_id": "24278", "name": "JAS 2", "tle1": "1 24278U 96046B   26199.14107666 -.00000031  00000-0  44640-5 0  9994", "tle2": "2 24278  98.5218  43.7700 0350222  16.3074 344.9004 13.53275822477352", "object_type": "PAYLOAD", "criticality_score": 9.0, "last_updated": "2026-07-18T17:04:38.830881+00:00", "maneuver_count": 0, "owner": "N/A"}, "100": {"norad_id": "22826", "name": "ITAMSAT", "tle1": "1 22826U 93061D   26199.15597196  .00000035  00000-0  29941-4 0  9996", "tle2": "2 22826  98.6813 266.4764 0008748   0.7284 359.3910 14.31377218711747", "object_type": "PAYLOAD", "criticality_score": 7.0, "last_updated": "2026-07-18T17:04:38.830881+00:00", "maneuver_count": 0, "owner": "N/A"}, "126": {"norad_id": "26063", "name": "OPAL", "tle1": "1 26063U 00004C   26199.27969633  .00000039  00000-0  32360-4 0  9993", "tle2": "2 26063 100.1911 141.8381 0035182 308.0542  51.7466 14.37974951387758", "object_type": "PAYLOAD", "criticality_score": 9.0, "last_updated": "2026-07-18T17:04:38.830881+00:00", "maneuver_count": 0, "owner": "N/A"}, "127": {"norad_id": "25635", "name": "ORSTED", "tle1": "1 25635U 99008B   26199.19591758  .00000306  00000-0  74509-4 0  9997", "tle2": "2 25635  96.4798  99.6637 0133578  87.2531 274.3950 14.51834616446462", "object_type": "PAYLOAD", "criticality_score": 9.0, "last_updated": "2026-07-18T17:04:38.830881+00:00", "maneuver_count": 0, "owner": "N/A"}, "128": {"norad_id": "23439", "name": "RADIO ROSTO", "tle1": "1 23439U 94085A   26199.15716131 -.00000038  00000-0  11801-3 0  9995", "tle2": "2 23439  64.8146 253.1302 0157033 358.1649   1.8681 11.27583518299390", "object_type": "PAYLOAD", "criticality_score": 9.0, "last_updated": "2026-07-18T17:04:38.830881+00:00", "maneuver_count": 0, "owner": "N/A"}, "146": {"norad_id": "27607", "name": "SAUDISAT 1C", "tle1": "1 27607U 02058C   26198.97124482  .00000371  00000-0  61897-4 0  9996", "tle2": "2 27607  64.5519  33.7353 0074442 256.7655 102.5140 14.83101410269020", "object_type": "PAYLOAD", "criticality_score": 9.0, "last_updated": "2026-07-18T17:04:38.830881+00:00", "maneuver_count": 0, "owner": "N/A"}, "151": {"norad_id": "26609", "name": "AMSAT OSCAR 40", "tle1": "1 26609U 00072B   26198.50299653 -.00000205  00000-0  00000-0 0  9995", "tle2": "2 26609   9.3864 346.1352 7933451 188.0204 139.6071  1.25588941117890", "object_type": "PAYLOAD", "criticality_score": 9.0, "last_updated": "2026-07-18T17:04:38.830881+00:00", "maneuver_count": 0, "owner": "N/A"}, "181": {"norad_id": "26410", "name": "CLUSTER II-FM7", "tle1": "1 26410U 00041A   26201.60132873  .00010308 -30424-5  00000-0 0  9990", "tle2": "2 26410 149.8019  56.9142 9091652 274.4947 359.3583  0.44850489 20452", "object_type": "PAYLOAD", "criticality_score": 9.0, "last_updated": "2026-07-18T17:04:38.830881+00:00", "maneuver_count": 0, "owner": "N/A"}, "184": {"norad_id": "26464", "name": "CLUSTER II-FM8", "tle1": "1 26464U 00045B   26197.70211284  .00047405 -54219-4  00000-0 0  9997", "tle2": "2 26464 150.0212  57.4640 9093703 274.8348   1.9953  0.44420127 20449", "object_type": "PAYLOAD", "criticality_score": 9.0, "last_updated": "2026-07-18T17:04:38.830881+00:00", "maneuver_count": 0, "owner": "N/A"}, "213": {"norad_id": "26546", "name": "MEGSAT 1", "tle1": "1 26546U 00057B   26198.76555472  .00001253  00000-0  97438-4 0  9998", "tle2": "2 26546  64.5497 331.1119 0043143 280.4002  79.2254 15.05638887402264", "object_type": "PAYLOAD", "criticality_score": 9.0, "last_updated": "2026-07-18T17:04:38.830881+00:00", "maneuver_count": 0, "owner": "N/A"}, "223": {"norad_id": "26958", "name": "PROBA 1", "tle1": "1 26958U 01049B   26199.33219954  .00000908  00000-0  62244-4 0  9996", "tle2": "2 26958  97.9601 208.9551 0055452  19.3603 340.9713 15.07622024348312", "object_type": "PAYLOAD", "criticality_score": 9.0, "last_updated": "2026-07-18T17:04:38.830881+00:00", "maneuver_count": 0, "owner": "N/A"}, "228": {"norad_id": "25984", "name": "ORBCOMM FM 36", "tle1": "1 25984U 99065E   26199.13691857  .00000349  00000-0  15723-3 0  9991", "tle2": "2 25984  45.0396  12.6511 0003894 133.1987 226.9188 14.39250881391447", "object_type": "PAYLOAD", "criticality_score": 9.0, "last_updated": "2026-07-18T17:04:38.830881+00:00", "maneuver_count": 0, "owner": "N/A"}, "229": {"norad_id": "25991", "name": "DMSP 5D-2 F15 (USA 147)", "tle1": "1 25991U 99067A   26199.28036847  .00000051  00000-0  47761-4 0  9997", "tle2": "2 25991  98.9948 238.2214 0008817 274.2542 148.1945 14.17572541375056", "object_type": "PAYLOAD", "criticality_score": 9.0, "last_updated": "2026-07-18T17:04:38.830881+00:00", "maneuver_count": 0, "owner": "N/A"}, "231": {"norad_id": "24920", "name": "FORTE", "tle1": "1 24920U 97047A   26198.28595306  .00000071  00000-0  51751-4 0  9999", "tle2": "2 24920  69.9546 306.0350 0024298 240.8662 119.0028 14.27956010502988", "object_type": "PAYLOAD", "criticality_score": 9.0, "last_updated": "2026-07-18T17:04:38.830881+00:00", "maneuver_count": 0, "owner": "N/A"}, "285": {"norad_id": "22491", "name": "PEGASUS R/B", "tle1": "1 22491U 93009C   26199.26603363  .00000485  00000-0  59320-4 0  9995", "tle2": "2 22491  24.9767 254.4385 0044285  82.1336 278.4199 14.58002517774171", "object_type": "ROCKET_BODY", "criticality_score": 3.0, "last_updated": "2026-07-18T17:04:38.830881+00:00", "maneuver_count": 0, "owner": "N/A"}, "327": {"norad_id": "27431", "name": "FENGYUN 1D", "tle1": "1 27431U 02024B   26199.15339140  .00000030  00000-0  42227-4 0  9992", "tle2": "2 27431  98.9504 249.3397 0015916 152.4242 207.7776 14.10228082243848", "object_type": "PAYLOAD", "criticality_score": 9.0, "last_updated": "2026-07-18T17:04:38.830881+00:00", "maneuver_count": 0, "owner": "N/A"}, "366": {"norad_id": "27640", "name": "CORIOLIS", "tle1": "1 27640U 03001A   26199.27218815  .00000038  00000-0  38333-4 0  9999", "tle2": "2 27640  98.7135 205.6833 0015036 120.9072 239.3585 14.19952372218635", "object_type": "PAYLOAD", "criticality_score": 9.0, "last_updated": "2026-07-18T17:04:38.830881+00:00", "maneuver_count": 0, "owner": "N/A"}, "445": {"norad_id": "26702", "name": "ODIN", "tle1": "1 26702U 01007A   26199.07480575  .00295265  34455-4  93745-3 0  9993", "tle2": "2 26702  97.3694 242.3091 0005160 152.1707 207.9844 15.91163632394280", "object_type": "PAYLOAD", "criticality_score": 9.0, "last_updated": "2026-07-18T17:04:38.830881+00:00", "maneuver_count": 0, "owner": "N/A"}, "474": {"norad_id": "26857", "name": "OMNI-M1", "tle1": "1 26857U 01026A   26196.51065422  .00000004  00000-0  00000-0 0  9990", "tle2": "2 26857  44.8240 238.7352 0013529  57.8922 302.2996  3.92402085206681", "object_type": "PAYLOAD", "criticality_score": 9.0, "last_updated": "2026-07-18T17:04:38.830881+00:00", "maneuver_count": 0, "owner": "N/A"}, "533": {"norad_id": "27421", "name": "SPOT 5", "tle1": "1 27421U 02021A   26199.32917284  .00000171  00000-0  45854-4 0  9993", "tle2": "2 27421  97.9834 236.8109 0129609 178.9426 181.2071 14.54769747267370", "object_type": "PAYLOAD", "criticality_score": 9.0, "last_updated": "2026-07-18T17:04:38.830881+00:00", "maneuver_count": 0, "owner": "N/A"}, "638": {"norad_id": "25682", "name": "LANDSAT 7", "tle1": "1 25682U 99020A   26199.26505650  .00000159  00000-0  38813-4 0  9991", "tle2": "2 25682  97.8592 201.4779 0001517  76.9559 293.6548 14.63939938450393", "object_type": "PAYLOAD", "criticality_score": 9.0, "last_updated": "2026-07-18T17:04:38.830881+00:00", "maneuver_count": 0, "owner": "N/A"}, "642": {"norad_id": "26113", "name": "IMAGE", "tle1": "1 26113U 00017A   26191.39817865 -.00000042  00000-0  00000-0 0  9994", "tle2": "2 26113  94.2468 315.6762 7416054 285.1805   9.7435  1.68666826161896", "object_type": "PAYLOAD", "criticality_score": 9.0, "last_updated": "2026-07-18T17:04:38.830881+00:00", "maneuver_count": 0, "owner": "N/A"}}}