OBJECT_NAME,OBJECT_ID,EPOCH,MEAN_MOTION,ECCENTRICITY,INCLINATION,RA_OF_ASC_NODE,ARG_OF_PERICENTER,MEAN_ANOMALY,EPHEMERIS_TYPE,CLASSIFICATION_TYPE,NORAD_CAT_ID,ELEMENT_SET_NO,REV_AT_EPOCH,BSTAR,MEAN_MOTION_DOT,MEAN_MOTION_DDOT
PEGASUS R/B,1993-009C,2026-07-18T06:23:05.305632,14.58002517,.00442849,24.9767,254.4385,82.1336,278.4199,0,U,22491,999,77417,.59319823E-4,.485E-5,0
EYESAT A (AO-27),1993-061C,2026-07-18T04:27:34.256160,14.30949549,.00085926,98.6865,266.5857,17.4944,342.6533,0,U,22825,999,71143,.2784665E-4,.29E-6,0
ITAMSAT (IO-26),1993-061D,2026-07-18T03:44:35.977344,14.31377218,.00087478,98.6813,266.4764,0.7284,359.3910,0,U,22826,999,71174,.29941278E-4,.35E-6,0
RADIO ROSTO (RS15),1994-085A,2026-07-18T03:46:18.737184,11.27583518,.01570326,64.8146,253.1302,358.1649,1.8681,0,U,23439,999,29939,.11801375E-3,-.38E-6,0
JAS-2 (FO-29),1996-046B,2026-07-18T03:23:09.023424,13.53275822,.03502219,98.5218,43.7700,16.3074,344.9004,0,U,24278,999,47735,.4464E-5,-.31E-6,0
FORTE,1997-047A,2026-07-17T06:51:46.344384,14.27956010,.0024298,69.9546,306.0350,240.8662,119.0028,0,U,24920,999,50298,.51751E-4,.71E-6,0
NOAA 15,1998-030A,2026-07-18T07:32:47.385312,14.27154920,.0009035,98.5064,219.1055,254.4222,105.5962,0,U,25338,999,46573,.31507551E-4,.34E-6,0
TECHSAT 1B (GO-32),1998-043D,2026-07-17T23:18:35.793504,14.24433657,.00022668,99.0087,192.5089,110.8541,249.2880,0,U,25397,999,45571,.2148049E-4,.3E-7,0
ISS (ZARYA),1998-067A,2026-07-18T02:08:01.938048,15.49037991,.00067939,51.6318,147.1664,308.8910,51.1472,0,U,25544,999,57654,.76428863E-4,.3768E-4,0
ORSTED,1999-008B,2026-07-18T04:42:07.278912,14.51834616,.01335776,96.4798,99.6637,87.2531,274.3950,0,U,25635,999,44646,.74509133E-4,.306E-5,0
LANDSAT 7,1999-020A,2026-07-18T06:21:40.881600,14.63939938,.00015168,97.8592,201.4779,76.9559,293.6548,0,U,25682,999,45039,.38813E-4,.159E-5,0
ORBCOMM FM36,1999-065E,2026-07-18T03:17:09.764448,14.39250881,.00038936,45.0396,12.6511,133.1987,226.9188,0,U,25984,999,39144,.15722713E-3,.349E-5,0
DMSP 5D-3 F15 (USA 147),1999-067A,2026-07-18T06:43:43.835808,14.17572541,.00088166,98.9948,238.2214,274.2542,148.1945,0,U,25991,999,37505,.47760507E-4,.51E-6,0
OPAL (OO-38),2000-004C,2026-07-18T06:42:45.762912,14.37974951,.00351821,100.1911,141.8381,308.0542,51.7466,0,U,26063,999,38775,.32359727E-4,.39E-6,0
IMAGE,2000-017A,2026-07-10T09:33:22.635360,1.68666826,.74160542,94.2468,315.6762,285.1805,9.7435,0,U,26113,999,16189,0,-.42E-6,0
CLUSTER II-FM7 (SAMBA),2000-041A,2026-07-20T14:25:54.802272,0.44850489,.9091652,149.8019,56.9142,274.4947,359.3583,0,U,26410,999,2045,0,.10308E-3,-.3042394E-5
CLUSTER II-FM8 (TANGO),2000-045B,2026-07-16T16:51:02.549376,0.44420127,.90937027,150.0212,57.4640,274.8348,1.9953,0,U,26464,999,2044,0,.47405E-3,-.54218645E-4
MEGSAT-1,2000-057B,2026-07-17T18:22:23.927808,15.05638887,.00431429,64.5497,331.1119,280.4002,79.2254,0,U,26546,999,40226,.9743767E-4,.1253E-4,0
PHASE 3D (AO-40),2000-072B,2026-07-17T12:04:18.900192,1.25588941,.79334506,9.3864,346.1352,188.0204,139.6071,0,U,26609,999,11789,0,-.205E-5,0
ODIN,2001-007A,2026-07-18T01:47:43.216800,15.91163632,.00051603,97.3694,242.3091,152.1707,207.9844,0,U,26702,999,39428,.93745351E-3,.295265E-2,.34455118E-4
OMNI-M1,2001-026A,2026-07-15T12:15:20.524608,3.92402085,.00135289,44.8240,238.7352,57.8922,302.2996,0,U,26857,999,20668,0,.4E-7,0
PCSAT (NO-44),2001-043C,2026-07-18T04:05:36.058272,14.31965620,.00058816,67.0497,164.1338,266.7892,93.2537,0,U,26931,999,29488,.39648002E-4,.23E-6,0
PROBA-1,2001-049B,2026-07-18T07:58:22.040256,15.07622024,.00554517,97.9601,208.9551,19.3603,340.9713,0,U,26958,999,34831,.62244275E-4,.908E-5,0
SPOT 5,2002-021A,2026-07-18T07:54:00.533376,14.54769747,.01296094,97.9834,236.8109,178.9426,181.2071,0,U,27421,999,26737,.45854263E-4,.171E-5,0
FENGYUN 1D,2002-024B,2026-07-18T03:40:53.016960,14.10228082,.00159161,98.9504,249.3397,152.4242,207.7776,0,U,27431,999,24384,.42226787E-4,.3E-6,0
SAUDISAT 1C (SO-50),2002-058C,2026-07-17T23:18:35.552448,14.83101410,.00744416,64.5519,33.7353,256.7655,102.5140,0,U,27607,999,26902,.61896608E-4,.371E-5,0
CORIOLIS,2003-001A,2026-07-18T06:31:57.056160,14.19952372,.00150361,98.7135,205.6833,120.9072,239.3585,0,U,27640,999,21863,.38333171E-4,.38E-6,0
CUTE-1 (CO-55),2003-031E,2026-07-18T07:08:10.116384,14.24352673,.00108679,98.6744,207.4657,94.6885,265.5536,0,U,27844,999,19610,.74435316E-4,.128E-5,0
CUBESAT XI-IV (CO-57),2003-031J,2026-07-17T22:48:02.109024,14.23635431,.00106323,98.6776,206.8106,112.1739,248.0569,0,U,27848,999,19575,.66203101E-4,.107E-5,0
MOZHAETS 4 (RS22),2003-042A,2026-07-18T07:48:23.152608,14.73517394,.00114745,98.3473,24.5650,163.3826,321.2806,0,U,27939,999,22013,.76442905E-4,.443E-5,0
